[{"OBJECT_NAME":"STARLINK-11320 [DTC]","OBJECT_ID":"2024-209D","EPOCH":"2026-03-09T22:43:24.758112","MEAN_MOTION":15.69859313,"ECCENTRICITY":0.00031454,"INCLINATION":53.1576,"RA_OF_ASC_NODE":10.3359,"ARG_OF_PERICENTER":122.7243,"MEAN_ANOMALY":237.4079,"EPHEMERIS_TYPE":0,"CLASSIFICATION_TYPE":"U","NORAD_CAT_ID":61942,"ELEMENT_SET_NO":999,"REV_AT_EPOCH":7671,"BSTAR":0.0025131128,"MEAN_MOTION_DOT":0.00317797,"MEAN_MOTION_DDOT":0},{"OBJECT_NAME":"DOVE 2","OBJECT_ID":"2013-015C","EPOCH":"2026-03-09T12:05:38.052096","MEAN_MOTION":15.68794519,"ECCENTRICITY":0.00170561,"INCLINATION":64.8558,"RA_OF_ASC_NODE":101.9902,"ARG_OF_PERICENTER":280.6272,"MEAN_ANOMALY":79.2958,"EPHEMERIS_TYPE":0,"CLASSIFICATION_TYPE":"U","NORAD_CAT_ID":39132,"ELEMENT_SET_NO":999,"REV_AT_EPOCH":71099,"BSTAR":0.00072172094,"MEAN_MOTION_DOT":0.00084334,"MEAN_MOTION_DDOT":0}]
